{
    "links": {
        "self": "http://www.neowsapp.com/rest/v1/neo/3843526?api_key=iIulBulltgU6a56xZRHN4H3l9WmuAYTsLGpBGhQ2"
    },
    "id": "3843526",
    "neo_reference_id": "3843526",
    "name": "(2019 PC2)",
    "designation": "2019 PC2",
    "nasa_jpl_url": "http://ssd.jpl.nasa.gov/sbdb.cgi?sstr=3843526",
    "absolute_magnitude_h": 25.5,
    "estimated_diameter": {
        "kilometers": {
            "estimated_diameter_min": 0.0211132445,
            "estimated_diameter_max": 0.0472106499
        },
        "meters": {
            "estimated_diameter_min": 21.113244479,
            "estimated_diameter_max": 47.2106498806
        },
        "miles": {
            "estimated_diameter_min": 0.0131191578,
            "estimated_diameter_max": 0.0293353287
        },
        "feet": {
            "estimated_diameter_min": 69.2691770164,
            "estimated_diameter_max": 154.8905885541
        }
    },
    "is_potentially_hazardous_asteroid": false,
    "close_approach_data": [
        {
            "close_approach_date": "2016-07-10",
            "close_approach_date_full": "2016-Jul-10 06:41",
            "epoch_date_close_approach": 1468132860000,
            "relative_velocity": {
                "kilometers_per_second": "10.9829226968",
                "kilometers_per_hour": "39538.5217086092",
                "miles_per_hour": "24567.6997805522"
            },
            "miss_distance": {
                "astronomical": "0.2754072843",
                "lunar": "107.1334335927",
                "kilometers": "41200343.113764441",
                "miles": "25600706.0903776458"
            },
            "orbiting_body": "Earth"
        },
        {
            "close_approach_date": "2019-08-04",
            "close_approach_date_full": "2019-Aug-04 17:24",
            "epoch_date_close_approach": 1564939440000,
            "relative_velocity": {
                "kilometers_per_second": "6.4915043707",
                "kilometers_per_hour": "23369.4157346072",
                "miles_per_hour": "14520.846126873"
            },
            "miss_distance": {
                "astronomical": "0.1022186769",
                "lunar": "39.7630653141",
                "kilometers": "15291696.338458203",
                "miles": "9501819.4994930814"
            },
            "orbiting_body": "Earth"
        },
        {
            "close_approach_date": "2022-08-26",
            "close_approach_date_full": "2022-Aug-26 18:12",
            "epoch_date_close_approach": 1661537520000,
            "relative_velocity": {
                "kilometers_per_second": "10.3090055703",
                "kilometers_per_hour": "37112.4200529832",
                "miles_per_hour": "23060.2145601439"
            },
            "miss_distance": {
                "astronomical": "0.2182674015",
                "lunar": "84.9060191835",
                "kilometers": "32652338.354834805",
                "miles": "20289222.229958109"
            },
            "orbiting_body": "Earth"
        },
        {
            "close_approach_date": "2025-09-09",
            "close_approach_date_full": "2025-Sep-09 12:31",
            "epoch_date_close_approach": 1757421060000,
            "relative_velocity": {
                "kilometers_per_second": "16.3991288123",
                "kilometers_per_hour": "59036.8637241101",
                "miles_per_hour": "36683.2112401283"
            },
            "miss_distance": {
                "astronomical": "0.4343020527",
                "lunar": "168.9434985003",
                "kilometers": "64970662.020547749",
                "miles": "40370897.3561829762"
            },
            "orbiting_body": "Earth"
        }
    ],
    "orbital_data": {
        "orbit_id": "3",
        "orbit_determination_date": "2019-08-20 05:40:58",
        "first_observation_date": "2019-07-28",
        "last_observation_date": "2019-08-12",
        "data_arc_in_days": 15,
        "observations_used": 17,
        "orbit_uncertainty": "7",
        "minimum_orbit_intersection": ".0967811",
        "jupiter_tisserand_invariant": "3.591",
        "epoch_osculation": "2459000.5",
        "eccentricity": ".4722463339935649",
        "semi_major_axis": "2.096538725263829",
        "inclination": "7.646150873312486",
        "ascending_node_longitude": "145.3649480916571",
        "orbital_period": "1108.798832293754",
        "perihelion_distance": "1.106455998182444",
        "perihelion_argument": "166.3184427845709",
        "aphelion_distance": "3.086621452345215",
        "perihelion_time": "2458698.423344492792",
        "mean_anomaly": "98.07693949102628",
        "mean_motion": ".3246756665997511",
        "equinox": "J2000",
        "orbit_class": {
            "orbit_class_type": "AMO",
            "orbit_class_description": "Near-Earth asteroid orbits similar to that of 1221 Amor",
            "orbit_class_range": "1.017 AU < q (perihelion) < 1.3 AU"
        }
    },
    "is_sentry_object": false
}